     2              NAVIGATION DATA                         RINEX VERSION / TYPE
CCRINEXN V1.6.0 UX  CDDIS               31-MAR-20 19:31     PGM / RUN BY / DATE 
IGS BROADCAST EPHEMERIS FILE                                COMMENT             
    0.1118D-07  0.7451D-08 -0.5960D-07 -0.5960D-07          ION ALPHA           
    0.9011D+05  0.1638D+05 -0.1966D+06 -0.6554D+05          ION BETA            
   -0.186264514923D-08-0.888178419700D-15   319488     2099 DELTA-UTC: A0,A1,T,W
    18                                                      LEAP SECONDS        
                                                            END OF HEADER       
28 20  3 30 14  0  0.0 0.729138031602D-03-0.295585778076D-11 0.000000000000D+00
    0.590000000000D+02 0.504687500000D+02 0.440054044303D-08-0.623855819242D+00
    0.275485217571D-05 0.185086845886D-01 0.452063977718D-05 0.515366626740D+04
    0.136800000000D+06-0.203028321266D-06 0.206840564101D+01 0.465661287308D-07
    0.978049823312D+00 0.305343750000D+03-0.141166219010D+01-0.846749556232D-08
    0.382158775590D-10 0.100000000000D+01 0.209900000000D+04 0.000000000000D+00
    0.200000000000D+01 0.000000000000D+00-0.111758708954D-07 0.590000000000D+02
    0.129618000000D+06 0.400000000000D+01 0.000000000000D+00 0.000000000000D+00
29 20  3 30 14  0  0.0-0.690477900207D-04-0.920863385545D-11 0.000000000000D+00
    0.230000000000D+02-0.511562500000D+02 0.398480884043D-08-0.963163060682D+00
   -0.268779695034D-05 0.125242257491D-02 0.469200313091D-05 0.515360788155D+04
    0.136800000000D+06-0.186264514923D-07 0.309136329843D+01 0.763684511185D-07
    0.985984159935D+00 0.302281250000D+03 0.187089371373D+01-0.799926177279D-08
   -0.176078762959D-09 0.100000000000D+01 0.209900000000D+04 0.000000000000D+00
    0.200000000000D+01 0.000000000000D+00-0.102445483208D-07 0.230000000000D+02
    0.129618000000D+06 0.400000000000D+01 0.000000000000D+00 0.000000000000D+00
30 20  3 30 14  0  0.0-0.187160912901D-03-0.864019966684D-11 0.000000000000D+00
    0.940000000000D+02 0.640000000000D+02 0.507128266785D-08 0.203409057873D+01
    0.341422855854D-05 0.441067654174D-02 0.925175845623D-05 0.515367393112D+04
    0.136800000000D+06-0.558793544769D-07 0.963565257823D+00 0.115483999252D-06
    0.938890103010D+00 0.192937500000D+03-0.291828753197D+01-0.823212861549D-08
   -0.138577200868D-09 0.100000000000D+01 0.209900000000D+04 0.000000000000D+00
    0.200000000000D+01 0.000000000000D+00 0.372529029846D-08 0.940000000000D+02
    0.129618000000D+06 0.400000000000D+01 0.000000000000D+00 0.000000000000D+00
31 20  3 30 14  0  0.0-0.327732414007D-04-0.250111042988D-11 0.000000000000D+00
    0.140000000000D+02 0.524375000000D+02 0.458911972669D-08 0.163020707285D+01
    0.305473804474D-05 0.953278073575D-02 0.100415199995D-04 0.515355349350D+04
    0.136800000000D+06-0.279396772385D-07 0.955352548371D+00 0.147148966789D-06
    0.958005581029D+00 0.184437500000D+03 0.125116901130D+00-0.800604776974D-08
   -0.330728061866D-09 0.100000000000D+01 0.209900000000D+04 0.000000000000D+00
    0.200000000000D+01 0.000000000000D+00-0.135041773319D-07 0.140000000000D+02
    0.129618000000D+06 0.400000000000D+01 0.000000000000D+00 0.000000000000D+00
32 20  3 30 14  0  0.0 0.248345546424D-03 0.875388650456D-11 0.000000000000D+00
    0.210000000000D+02-0.112187500000D+02 0.493199115151D-08-0.618240062946D+00
   -0.497326254845D-06 0.377958535682D-02 0.750645995140D-05 0.515369152832D+04
    0.136800000000D+06 0.167638063431D-07-0.125935848522D+00 0.670552253723D-07
    0.957188516412D+00 0.233000000000D+03-0.248408456028D+01-0.812426697976D-08
   -0.136791412197D-09 0.100000000000D+01 0.209900000000D+04 0.000000000000D+00
    0.200000000000D+01 0.000000000000D+00 0.465661287308D-09 0.210000000000D+02
    0.129618000000D+06 0.400000000000D+01 0.000000000000D+00 0.000000000000D+00
13 20  3 30 15 59 44.0-0.178907066584D-05 0.295585778076D-11 0.000000000000D+00
    0.100000000000D+02-0.108750000000D+02 0.451625954891D-08-0.109476754560D+01
   -0.458210706711D-06 0.412744772621D-02 0.813789665699D-05 0.515365824509D+04
    0.143984000000D+06 0.130385160446D-07 0.780160167660D-02 0.102445483208D-06
    0.968271857347D+00 0.227843750000D+03 0.112546531032D+01-0.794175937758D-08
   -0.208937274505D-09 0.100000000000D+01 0.209900000000D+04 0.000000000000D+00
    0.200000000000D+01 0.000000000000D+00-0.111758708954D-07 0.100000000000D+02
    0.137106000000D+06 0.400000000000D+01 0.000000000000D+00 0.000000000000D+00
23 20  3 30 15 59 44.0-0.125929713249D-03 0.295585778076D-11 0.000000000000D+00
    0.130000000000D+02-0.117187500000D+02 0.506985403691D-08-0.177029306379D+01
   -0.694766640663D-06 0.140564101748D-01 0.654533505440D-05 0.515517669106D+04
    0.143984000000D+06 0.219792127609D-06-0.142161105123D+00-0.260770320892D-07
    0.943849722992D+00 0.235781250000D+03-0.221250592158D+01-0.809033699501D-08
    0.467876631797D-10 0.100000000000D+01 0.209900000000D+04 0.000000000000D+00
    0.200000000000D+01 0.630000000000D+02-0.200234353542D-07 0.130000000000D+02
    0.138018000000D+06 0.400000000000D+01 0.000000000000D+00 0.000000000000D+00
30 20  3 30 15 59 44.0-0.187222380191D-03-0.864019966684D-11 0.000000000000D+00
    0.200000000000D+01 0.588125000000D+02 0.500449417156D-08 0.308183867623D+01
    0.310875475407D-05 0.441057735588D-02 0.932626426220D-05 0.515367452812D+04
    0.143984000000D+06-0.540167093277D-07 0.963506223227D+00-0.186264514923D-07
    0.938889756298D+00 0.191625000000D+03-0.291818524620D+01-0.812569561070D-08
   -0.907180644858D-10 0.100000000000D+01 0.209900000000D+04 0.000000000000D+00
    0.200000000000D+01 0.000000000000D+00 0.372529029846D-08 0.200000000000D+01
    0.142585000000D+06 0.400000000000D+01 0.000000000000D+00 0.000000000000D+00
 1 20  3 30 16  0  0.0-0.342906918377D-03-0.120508047985D-10 0.000000000000D+00
    0.740000000000D+02-0.644375000000D+02 0.378980071755D-08-0.243785607833D+01
   -0.334158539772D-05 0.960264483001D-02 0.856444239616D-05 0.515363245583D+04
    0.144000000000D+06-0.745058059692D-08-0.220648981727D+01-0.707805156708D-07
    0.979379511979D+00 0.224593750000D+03 0.757444958806D+00-0.753817113794D-08
    0.222152110670D-09 0.100000000000D+01 0.209900000000D+04 0.000000000000D+00
    0.200000000000D+01 0.000000000000D+00 0.558793544769D-08 0.740000000000D+02
    0.138762000000D+06 0.400000000000D+01 0.000000000000D+00 0.000000000000D+00
 2 20  3 30 16  0  0.0-0.430942513049D-03-0.659383658785D-11 0.000000000000D+00
    0.200000000000D+02-0.487187500000D+02 0.426660629271D-08-0.218563010056D+01
   -0.247359275818D-05 0.197755005211D-01 0.855140388012D-05 0.515366626740D+04
    0.144000000000D+06 0.346451997757D-06-0.228158301588D+01 0.447034835815D-07
    0.958439533734D+00 0.210187500000D+03-0.164147552412D+01-0.762603194055D-08
    0.137148569931D-09 0.100000000000D+01 0.209900000000D+04 0.000000000000D+00
    0.200000000000D+01 0.000000000000D+00-0.176951289177D-07 0.200000000000D+02
    0.136818000000D+06 0.400000000000D+01 0.000000000000D+00 0.000000000000D+00
 3 20  3 30 16  0  0.0-0.131799373776D-03-0.103455022327D-10 0.000000000000D+00
    0.610000000000D+02-0.934375000000D+01 0.440482633584D-08 0.277041195869D+01
   -0.404193997383D-06 0.270100473426D-02 0.751763582230D-05 0.515358345985D+04
    0.144000000000D+06 0.409781932831D-07-0.116530933689D+01-0.633299350738D-07
    0.964952434782D+00 0.237156250000D+03 0.696585879964D+00-0.790997233924D-08
    0.402159608705D-09 0.100000000000D+01 0.209900000000D+04 0.000000000000D+00
    0.200000000000D+01 0.000000000000D+00 0.186264514923D-08 0.610000000000D+02
    0.136818000000D+06 0.400000000000D+01 0.000000000000D+00 0.000000000000D+00
 4 20  3 30 16  0  0.0-0.694068148732D-04-0.522959453519D-11 0.000000000000D+00
    0.199000000000D+03-0.107187500000D+02 0.473055418943D-08-0.128268447700D+01
   -0.614672899246D-06 0.649427063763D-03 0.736303627491D-05 0.515369981384D+04
    0.144000000000D+06 0.186264514923D-08-0.866819514055D-01 0.409781932831D-07
    0.960351345300D+00 0.234093750000D+03-0.264502324738D+01-0.806390732268D-08
   -0.907180644858D-10 0.100000000000D+01 0.209900000000D+04 0.000000000000D+00
    0.200000000000D+01 0.000000000000D+00-0.419095158577D-08 0.199000000000D+03
    0.137118000000D+06 0.400000000000D+01 0.000000000000D+00 0.000000000000D+00
 5 20  3 30 16  0  0.0-0.999215990305D-05-0.682121026330D-12 0.000000000000D+00
    0.100000000000D+03-0.503125000000D+01 0.478841374237D-08 0.475418186984D+00
   -0.193715095520D-06 0.579500512686D-02 0.736303627491D-05 0.515362561798D+04
    0.144000000000D+06-0.100582838059D-06-0.119640830689D+01 0.119209289551D-06
    0.951838548925D+00 0.233093750000D+03 0.786281621088D+00-0.820641325862D-08
    0.350014579512D-09 0.100000000000D+01 0.209900000000D+04 0.000000000000D+00
    0.200000000000D+01 0.000000000000D+00-0.111758708954D-07 0.100000000000D+03
    0.136818000000D+06 0.400000000000D+01 0.000000000000D+00 0.000000000000D+00
 6 20  3 30 16  0  0.0-0.242321286350D-03-0.807176547823D-11 0.000000000000D+00
    0.110000000000D+02-0.501875000000D+02 0.392623497202D-08-0.229565114418D+01
   -0.263191759586D-05 0.193702091929D-02 0.901333987713D-05 0.515378001213D+04
    0.144000000000D+06 0.596046447754D-07-0.221473627917D+01 0.484287738800D-07
    0.978959765672D+00 0.217062500000D+03-0.107101217566D+01-0.775353725166D-08
    0.111790370803D-09 0.100000000000D+01 0.209900000000D+04 0.000000000000D+00
    0.200000000000D+01 0.000000000000D+00 0.465661287308D-08 0.110000000000D+02
    0.136821000000D+06 0.400000000000D+01 0.000000000000D+00 0.000000000000D+00
